{
  "norad_id": 42845,
  "name": "LEMUR-2-ZACHARY",
  "history": [
    {
      "epoch": "2026-03-28T18:50:15.728928Z",
      "apogee_km": 437.42484370776947,
      "perigee_km": 433.17571168390714,
      "latitude_deg": 3.7575010364462296e-06,
      "longitude_deg": 169.32118948475548,
      "height_km": 437.32757027731293,
      "semi_major_axis_km": 6813.437277695838,
      "eccentricity": 0.00031182,
      "inclination_deg": 97.3657,
      "raan_deg": 278.0871,
      "arg_perigee_deg": 301.1642,
      "mean_anomaly_deg": 58.93,
      "mean_motion_rev_day": 15.43666106
    },
    {
      "epoch": "2026-03-28T23:30:17.757216Z",
      "apogee_km": 437.3535663361108,
      "perigee_km": 433.1347207320341,
      "latitude_deg": -4.646389192811602e-06,
      "longitude_deg": 99.3179629608035,
      "height_km": 437.30033039200765,
      "semi_major_axis_km": 6813.381143534072,
      "eccentricity": 0.0003096,
      "inclination_deg": 97.3655,
      "raan_deg": 278.284,
      "arg_perigee_deg": 300.4993,
      "mean_anomaly_deg": 59.5949,
      "mean_motion_rev_day": 15.43685183
    },
    {
      "epoch": "2026-03-30T01:57:04.973184Z",
      "apogee_km": 437.0142268183181,
      "perigee_km": 432.77107195268127,
      "latitude_deg": -7.073680850074199e-05,
      "longitude_deg": 62.650821788288255,
      "height_km": 437.1070676314767,
      "semi_major_axis_km": 6813.029649385499,
      "eccentricity": 0.0003114,
      "inclination_deg": 97.3653,
      "raan_deg": 279.3997,
      "arg_perigee_deg": 295.481,
      "mean_anomaly_deg": 64.6115,
      "mean_motion_rev_day": 15.43804646
    },
    {
      "epoch": "2026-03-30T11:17:05.749152Z",
      "apogee_km": 436.903924341791,
      "perigee_km": 432.6211994192008,
      "latitude_deg": 1.5965276806812181e-06,
      "longitude_deg": -77.34213549218997,
      "height_km": 437.0169122001927,
      "semi_major_axis_km": 6812.899561880496,
      "eccentricity": 0.00031431,
      "inclination_deg": 97.3649,
      "raan_deg": 279.7933,
      "arg_perigee_deg": 294.0575,
      "mean_anomaly_deg": 66.0344,
      "mean_motion_rev_day": 15.43848863
    },
    {
      "epoch": "2026-03-30T19:03:45.709056Z",
      "apogee_km": 436.7418166870111,
      "perigee_km": 432.58110441118424,
      "latitude_deg": 9.352569564519322e-06,
      "longitude_deg": 166.00034275969983,
      "height_km": 436.96053222728614,
      "semi_major_axis_km": 6812.798460549097,
      "eccentricity": 0.00030536,
      "inclination_deg": 97.3647,
      "raan_deg": 280.1217,
      "arg_perigee_deg": 293.4597,
      "mean_anomaly_deg": 66.633,
      "mean_motion_rev_day": 15.43883229
    },
    {
      "epoch": "2026-03-31T18:23:41.874432Z",
      "apogee_km": 436.49447138326923,
      "perigee_km": 432.253002198544,
      "latitude_deg": 2.8319175597322098e-05,
      "longitude_deg": 176.04249703135875,
      "height_km": 436.8105383758945,
      "semi_major_axis_km": 6812.510736790907,
      "eccentricity": 0.0003113,
      "inclination_deg": 97.3645,
      "raan_deg": 281.1061,
      "arg_perigee_deg": 289.0099,
      "mean_anomaly_deg": 71.0812,
      "mean_motion_rev_day": 15.43981038
    },
    {
      "epoch": "2026-04-01T11:30:15.795936Z",
      "apogee_km": 436.34187191941874,
      "perigee_km": 432.01060316299026,
      "latitude_deg": -6.239805099852308e-05,
      "longitude_deg": -80.5800890099646,
      "height_km": 436.7337031131156,
      "semi_major_axis_km": 6812.313237541204,
      "eccentricity": 0.0003179,
      "inclination_deg": 97.3644,
      "raan_deg": 281.8275,
      "arg_perigee_deg": 285.2708,
      "mean_anomaly_deg": 74.8188,
      "mean_motion_rev_day": 15.44048182
    },
    {
      "epoch": "2026-04-02T18:36:37.028448Z",
      "apogee_km": 435.8898350678037,
      "perigee_km": 431.56484616066064,
      "latitude_deg": 6.236282289142954e-05,
      "longitude_deg": 172.86665350405804,
      "height_km": 436.43354320842593,
      "semi_major_axis_km": 6811.864340614232,
      "eccentricity": 0.00031746,
      "inclination_deg": 97.3641,
      "raan_deg": 283.1402,
      "arg_perigee_deg": 281.2515,
      "mean_anomaly_deg": 78.8377,
      "mean_motion_rev_day": 15.44200812
    },
    {
      "epoch": "2026-04-03T11:43:01.209216Z",
      "apogee_km": 435.59751077684723,
      "perigee_km": 431.21510004501124,
      "latitude_deg": 5.651598711247549e-05,
      "longitude_deg": -83.71534672259007,
      "height_km": 436.2649361857776,
      "semi_major_axis_km": 6811.543305410929,
      "eccentricity": 0.00032169,
      "inclination_deg": 97.364,
      "raan_deg": 283.8615,
      "arg_perigee_deg": 277.0721,
      "mean_anomaly_deg": 83.0162,
      "mean_motion_rev_day": 15.44309983
    },
    {
      "epoch": "2026-04-04T12:35:51.411840Z",
      "apogee_km": 435.1776537485339,
      "perigee_km": 430.8183911114784,
      "latitude_deg": -1.6049353139314627e-05,
      "longitude_deg": -96.89622595365256,
      "height_km": 436.0132439030388,
      "semi_major_axis_km": 6811.135022430006,
      "eccentricity": 0.00032001,
      "inclination_deg": 97.364,
      "raan_deg": 284.9116,
      "arg_perigee_deg": 272.9828,
      "mean_anomaly_deg": 87.1054,
      "mean_motion_rev_day": 15.44448842
    },
    {
      "epoch": "2026-04-05T11:55:17.198112Z",
      "apogee_km": 434.9299153982938,
      "perigee_km": 430.5141630488033,
      "latitude_deg": 9.183154190759452e-05,
      "longitude_deg": -86.72715960313752,
      "height_km": 435.9018103459665,
      "semi_major_axis_km": 6810.859039223548,
      "eccentricity": 0.00032417,
      "inclination_deg": 97.365,
      "raan_deg": 285.896,
      "arg_perigee_deg": 268.6775,
      "mean_anomaly_deg": 91.4103,
      "mean_motion_rev_day": 15.44542717
    },
    {
      "epoch": "2026-04-06T06:34:46.113312Z",
      "apogee_km": 434.72041376973084,
      "perigee_km": 430.2944483797528,
      "latitude_deg": -1.2350312448274154e-05,
      "longitude_deg": -6.57608593987125,
      "height_km": 435.79445904579023,
      "semi_major_axis_km": 6810.644431074742,
      "eccentricity": 0.00032493,
      "inclination_deg": 97.3652,
      "raan_deg": 286.6838,
      "arg_perigee_deg": 265.9035,
      "mean_anomaly_deg": 94.1842,
      "mean_motion_rev_day": 15.44615722
    },
    {
      "epoch": "2026-04-07T18:20:17.948832Z",
      "apogee_km": 434.31656729044334,
      "perigee_km": 429.92803619639926,
      "latitude_deg": 4.8157239262765585e-05,
      "longitude_deg": 177.08319073391405,
      "height_km": 435.6148462317525,
      "semi_major_axis_km": 6810.259301743421,
      "eccentricity": 0.0003222,
      "inclination_deg": 97.3651,
      "raan_deg": 288.1943,
      "arg_perigee_deg": 260.4658,
      "mean_anomaly_deg": 99.6227,
      "mean_motion_rev_day": 15.44746749
    },
    {
      "epoch": "2026-04-08T11:26:21.619968Z",
      "apogee_km": 434.1667335626171,
      "perigee_km": 429.73472846727327,
      "latitude_deg": -4.0359454146459335e-05,
      "longitude_deg": -79.41221037770673,
      "height_km": 435.5530642497909,
      "semi_major_axis_km": 6810.087731014945,
      "eccentricity": 0.0003254,
      "inclination_deg": 97.365,
      "raan_deg": 288.9165,
      "arg_perigee_deg": 257.6723,
      "mean_anomaly_deg": 102.4161,
      "mean_motion_rev_day": 15.44805126
    },
    {
      "epoch": "2026-04-09T13:52:01.165728Z",
      "apogee_km": 433.9453267638155,
      "perigee_km": 429.46717384241674,
      "latitude_deg": -2.006183479279375e-05,
      "longitude_deg": -115.79603536858548,
      "height_km": 435.4852036584418,
      "semi_major_axis_km": 6809.843250303116,
      "eccentricity": 0.0003288,
      "inclination_deg": 97.3651,
      "raan_deg": 290.0328,
      "arg_perigee_deg": 253.1341,
      "mean_anomaly_deg": 106.9547,
      "mean_motion_rev_day": 15.44888317
    },
    {
      "epoch": "2026-04-10T08:31:15.316032Z",
      "apogee_km": 433.7930162167813,
      "perigee_km": 429.24416628182644,
      "latitude_deg": 4.512298569688497e-05,
      "longitude_deg": -35.58299513213883,
      "height_km": 435.4155516614031,
      "semi_major_axis_km": 6809.655591249303,
      "eccentricity": 0.000334,
      "inclination_deg": 97.3652,
      "raan_deg": 290.8209,
      "arg_perigee_deg": 250.2776,
      "mean_anomaly_deg": 109.8113,
      "mean_motion_rev_day": 15.44952178
    },
    {
      "epoch": "2026-04-11T18:43:04.635264Z",
      "apogee_km": 433.54420596862747,
      "perigee_km": 428.8961387627696,
      "latitude_deg": 5.305771498209029e-05,
      "longitude_deg": 171.50198204915674,
      "height_km": 435.36903556707745,
      "semi_major_axis_km": 6809.357172365698,
      "eccentricity": 0.0003413,
      "inclination_deg": 97.3653,
      "raan_deg": 292.2658,
      "arg_perigee_deg": 243.9852,
      "mean_anomaly_deg": 116.1046,
      "mean_motion_rev_day": 15.4505374
    },
    {
      "epoch": "2026-04-13T00:15:00.533376Z",
      "apogee_km": 433.39648430462876,
      "perigee_km": 428.6449178776529,
      "latitude_deg": 2.675950200340299e-05,
      "longitude_deg": 88.5542316755832,
      "height_km": 435.4164615977933,
      "semi_major_axis_km": 6809.157701091141,
      "eccentricity": 0.00034891,
      "inclination_deg": 97.3649,
      "raan_deg": 293.5138,
      "arg_perigee_deg": 237.7946,
      "mean_anomaly_deg": 122.2965,
      "mean_motion_rev_day": 15.45121633
    },
    {
      "epoch": "2026-04-14T10:26:37.778208Z",
      "apogee_km": 433.2166266587428,
      "perigee_km": 428.4404097063589,
      "latitude_deg": 3.589492155162368e-05,
      "longitude_deg": -64.30983956091298,
      "height_km": 435.4299913089478,
      "semi_major_axis_km": 6808.96551818255,
      "eccentricity": 0.00035073,
      "inclination_deg": 97.3644,
      "raan_deg": 294.9592,
      "arg_perigee_deg": 231.9484,
      "mean_anomaly_deg": 128.1449,
      "mean_motion_rev_day": 15.4518705
    }
  ]
}